ONEWEB-0144             
1 47290U 20100AJ  25058.48542330 -.00000339  00000+0 -97656-3 0  9996
2 47290  87.8804  85.1379 0001899  83.5004 276.6340 13.12444115202300
ONEWEB-0145             
1 47291U 20100AK  25058.53248035  .00000276  00000+0  73259-3 0  9999
2 47291  87.8804  85.1539 0001910  89.7122 270.4225 13.12442644202503
ONEWEB-0146             
1 47292U 20100AL  25059.13913884  .00000391  00000+0  10502-2 0  9997
2 47292  87.8805  85.0182 0002027 104.3519 255.7835 13.12441978202492
ONEWEB-0147             
1 47293U 20100AM  25058.49516785 -.00000083  00000+0 -26509-3 0  9990
2 47293  87.8803  85.1310 0002168  89.1376 271.0001 13.12443302202301
ONEWEB-0115             
1 48042U 21025A   25059.04609167 -.00001895  00000+0 -52262-2 0  9995
2 48042  87.8887  54.4682 0001762  90.2931 269.8400 13.13448364191361
ONEWEB-0152             
1 48043U 21025B   25058.67791146 -.00003583  00000+0 -98543-2 0  9991
2 48043  87.8890  54.5500 0001917  83.8680 276.2668 13.13438047191261
ONEWEB-0153             
1 48044U 21025C   25059.03660997 -.00005944  00000+0 -16334-1 0  9992
2 48044  87.8891  54.4726 0001813  87.7304 272.4032 13.13418476191316
ONEWEB-0154             
1 48045U 21025D   25058.72872265 -.00007754  00000+0 -21307-1 0  9998
2 48045  87.8889  54.5376 0002199  87.0247 273.1134 13.13404131191227
